[{"OBJECT_NAME":"OBJECT D","OBJECT_ID":"2024-085D","EPOCH":"2026-03-09T22:53:13.410816","MEAN_MOTION":15.33413141,"ECCENTRICITY":0.00152451,"INCLINATION":97.3312,"RA_OF_ASC_NODE":145.3953,"ARG_OF_PERICENTER":54.9672,"MEAN_ANOMALY":305.2998,"EPHEMERIS_TYPE":0,"CLASSIFICATION_TYPE":"U","NORAD_CAT_ID":59680,"ELEMENT_SET_NO":999,"REV_AT_EPOCH":10244,"BSTAR":0.00049264705,"MEAN_MOTION_DOT":0.00015903,"MEAN_MOTION_DDOT":0},{"OBJECT_NAME":"STARLINK-32206","OBJECT_ID":"2024-131U","EPOCH":"2026-03-09T22:33:26.025984","MEAN_MOTION":15.30181352,"ECCENTRICITY":0.00016433,"INCLINATION":53.161,"RA_OF_ASC_NODE":51.5102,"ARG_OF_PERICENTER":96.5988,"MEAN_ANOMALY":263.52,"EPHEMERIS_TYPE":0,"CLASSIFICATION_TYPE":"U","NORAD_CAT_ID":60273,"ELEMENT_SET_NO":999,"REV_AT_EPOCH":9175,"BSTAR":5.3885013e-5,"MEAN_MOTION_DOT":1.236e-5,"MEAN_MOTION_DDOT":0}]
